{
  "type": "FeatureCollection",
  "features": [
    {
      "type": "Feature",
      "properties": {
        "norad_id": 34722,
        "name": "COSMOS 2251 DEB",
        "group": "cosmos-2251-debris",
        "lat": -52.638206057934426,
        "lon": -39.34590291326048,
        "alt_km": 759.7869896243537,
        "timestamp": "2025-12-08T21:31:05.061463+00:00",
        "meta_object_name": "COSMOS 2251 DEB",
        "meta_object_id": "1993-036YQ",
        "meta_epoch": "2025-12-08T01:39:18.911232",
        "meta_mean_motion": 14.11910631,
        "meta_eccentricity": 0.0167316,
        "meta_inclination": 73.8726,
        "meta_ra_of_asc_node": 344.3987,
        "meta_arg_of_pericenter": 270.7554,
        "meta_mean_anomaly": 147.3377,
        "meta_ephemeris_type": 0,
        "meta_classification_type": "U",
        "meta_norad_cat_id": 34722,
        "meta_element_set_no": 999,
        "meta_rev_at_epoch": 86179,
        "meta_bstar": 0.0012190185,
        "meta_mean_motion_dot": 2.515e-05,
        "meta_mean_motion_ddot": 0,
        "tle_line1": "1 34722U 93036YQ  25342.06896888  .00002515  00000+0  12190-2 0  9995",
        "tle_line2": "2 34722  73.8726 344.3987 0167316 270.7554 147.3377 14.11910631861795"
      },
      "geometry": {
        "type": "Point",
        "coordinates": [
          -39.34590291326048,
          -52.638206057934426
        ]
      }
    },
    {
      "type": "Feature",
      "properties": {
        "norad_id": 34726,
        "name": "COSMOS 2251 DEB",
        "group": "cosmos-2251-debris",
        "lat": 32.21179183054948,
        "lon": 4.0500685548532624,
        "alt_km": 703.7348122331623,
        "timestamp": "2025-12-08T21:31:05.061474+00:00",
        "meta_object_name": "COSMOS 2251 DEB",
        "meta_object_id": "1993-036YU",
        "meta_epoch": "2025-12-08T11:29:33.895392",
        "meta_mean_motion": 14.59458028,
        "meta_eccentricity": 0.00422049,
        "meta_inclination": 74.029,
        "meta_ra_of_asc_node": 354.4517,
        "meta_arg_of_pericenter": 146.6151,
        "meta_mean_anomaly": 213.7689,
        "meta_ephemeris_type": 0,
        "meta_classification_type": "U",
        "meta_norad_cat_id": 34726,
        "meta_element_set_no": 999,
        "meta_rev_at_epoch": 88440,
        "meta_bstar": 0.00067581439,
        "meta_mean_motion_dot": 3.216e-05,
        "meta_mean_motion_ddot": 0,
        "tle_line1": "1 34726U 93036YU  25342.47886453  .00003216  00000+0  67581-3 0  9995",
        "tle_line2": "2 34726  74.0290 354.4517 0042204 146.6151 213.7689 14.59458028884407"
      },
      "geometry": {
        "type": "Point",
        "coordinates": [
          4.0500685548532624,
          32.21179183054948
        ]
      }
    },
    {
      "type": "Feature",
      "properties": {
        "norad_id": 34728,
        "name": "COSMOS 2251 DEB",
        "group": "cosmos-2251-debris",
        "lat": 59.90816594119186,
        "lon": 49.598796896157204,
        "alt_km": 636.9478305297089,
        "timestamp": "2025-12-08T21:31:05.061484+00:00",
        "meta_object_name": "COSMOS 2251 DEB",
        "meta_object_id": "1993-036YW",
        "meta_epoch": "2025-12-08T04:40:21.187488",
        "meta_mean_motion": 14.70775682,
        "meta_eccentricity": 0.00410887,
        "meta_inclination": 74.018,
        "meta_ra_of_asc_node": 260.6035,
        "meta_arg_of_pericenter": 59.4394,
        "meta_mean_anomaly": 301.0821,
        "meta_ephemeris_type": 0,
        "meta_classification_type": "U",
        "meta_norad_cat_id": 34728,
        "meta_element_set_no": 999,
        "meta_rev_at_epoch": 88733,
        "meta_bstar": 0.0011226976,
        "meta_mean_motion_dot": 6.918e-05,
        "meta_mean_motion_ddot": 0,
        "tle_line1": "1 34728U 93036YW  25342.19468967  .00006918  00000+0  11227-2 0  9999",
        "tle_line2": "2 34728  74.0180 260.6035 0041088  59.4394 301.0821 14.70775682887334"
      },
      "geometry": {
        "type": "Point",
        "coordinates": [
          49.598796896157204,
          59.90816594119186
        ]
      }
    },
    {
      "type": "Feature",
      "properties": {
        "norad_id": 34729,
        "name": "COSMOS 2251 DEB",
        "group": "cosmos-2251-debris",
        "lat": -33.988590948043644,
        "lon": -5.100150938797013,
        "alt_km": 634.8594010328698,
        "timestamp": "2025-12-08T21:31:05.061494+00:00",
        "meta_object_name": "COSMOS 2251 DEB",
        "meta_object_id": "1993-036YX",
        "meta_epoch": "2025-12-08T12:38:33.716832",
        "meta_mean_motion": 14.82610152,
        "meta_eccentricity": 0.00118663,
        "meta_inclination": 74.018,
        "meta_ra_of_asc_node": 6.7731,
        "meta_arg_of_pericenter": 128.2562,
        "meta_mean_anomaly": 23.3369,
        "meta_ephemeris_type": 0,
        "meta_classification_type": "U",
        "meta_norad_cat_id": 34729,
        "meta_element_set_no": 999,
        "meta_rev_at_epoch": 88395,
        "meta_bstar": 0.0023481946,
        "meta_mean_motion_dot": 0.00018951,
        "meta_mean_motion_ddot": 0,
        "tle_line1": "1 34729U 93036YX  25342.52677913  .00018951  00000+0  23482-2 0  9996",
        "tle_line2": "2 34729  74.0180   6.7731 0011866 128.2562  23.3369 14.82610152883958"
      },
      "geometry": {
        "type": "Point",
        "coordinates": [
          -5.100150938797013,
          -33.988590948043644
        ]
      }
    },
    {
      "type": "Feature",
      "properties": {
        "norad_id": 34732,
        "name": "COSMOS 2251 DEB",
        "group": "cosmos-2251-debris",
        "lat": -37.79632546696627,
        "lon": 87.54800534234698,
        "alt_km": 729.8755696488106,
        "timestamp": "2025-12-08T21:31:05.061505+00:00",
        "meta_object_name": "COSMOS 2251 DEB",
        "meta_object_id": "1993-036ZA",
        "meta_epoch": "2025-12-08T02:37:41.135232",
        "meta_mean_motion": 14.47291723,
        "meta_eccentricity": 0.00404623,
        "meta_inclination": 74.0449,
        "meta_ra_of_asc_node": 101.8377,
        "meta_arg_of_pericenter": 253.7205,
        "meta_mean_anomaly": 287.1114,
        "meta_ephemeris_type": 0,
        "meta_classification_type": "U",
        "meta_norad_cat_id": 34732,
        "meta_element_set_no": 999,
        "meta_rev_at_epoch": 88076,
        "meta_bstar": 0.0002544242,
        "meta_mean_motion_dot": 9.13e-06,
        "meta_mean_motion_ddot": 0,
        "tle_line1": "1 34732U 93036ZA  25342.10950388  .00000913  00000+0  25442-3 0  9992",
        "tle_line2": "2 34732  74.0449 101.8377 0040462 253.7205 287.1114 14.47291723880769"
      },
      "geometry": {
        "type": "Point",
        "coordinates": [
          87.54800534234698,
          -37.79632546696627
        ]
      }
    },
    {
      "type": "Feature",
      "properties": {
        "norad_id": 34736,
        "name": "COSMOS 2251 DEB",
        "group": "cosmos-2251-debris",
        "lat": 12.018072453217405,
        "lon": -138.8784069535007,
        "alt_km": 447.4205264962184,
        "timestamp": "2025-12-08T21:31:05.061515+00:00",
        "meta_object_name": "COSMOS 2251 DEB",
        "meta_object_id": "1993-036ZE",
        "meta_epoch": "2025-12-08T14:34:25.701888",
        "meta_mean_motion": 15.43608373,
        "meta_eccentricity": 0.00169289,
        "meta_inclination": 74.0019,
        "meta_ra_of_asc_node": 45.2532,
        "meta_arg_of_pericenter": 349.9791,
        "meta_mean_anomaly": 10.1078,
        "meta_ephemeris_type": 0,
        "meta_classification_type": "U",
        "meta_norad_cat_id": 34736,
        "meta_element_set_no": 999,
        "meta_rev_at_epoch": 88384,
        "meta_bstar": 0.0078832051,
        "meta_mean_motion_dot": 0.00373965,
        "meta_mean_motion_ddot": 0,
        "tle_line1": "1 34736U 93036ZE  25342.60724192  .00373965  00000+0  78832-2 0  9993",
        "tle_line2": "2 34736  74.0019  45.2532 0016928 349.9791  10.1078 15.43608373883843"
      },
      "geometry": {
        "type": "Point",
        "coordinates": [
          -138.8784069535007,
          12.018072453217405
        ]
      }
    },
    {
      "type": "Feature",
      "properties": {
        "norad_id": 34738,
        "name": "COSMOS 2251 DEB",
        "group": "cosmos-2251-debris",
        "lat": 6.294613026014792,
        "lon": 152.2609417864904,
        "alt_km": 727.5016392620082,
        "timestamp": "2025-12-08T21:31:05.061525+00:00",
        "meta_object_name": "COSMOS 2251 DEB",
        "meta_object_id": "1993-036ZG",
        "meta_epoch": "2025-12-08T13:29:46.460256",
        "meta_mean_motion": 14.46288407,
        "meta_eccentricity": 0.00472749,
        "meta_inclination": 74.0141,
        "meta_ra_of_asc_node": 151.0734,
        "meta_arg_of_pericenter": 298.1115,
        "meta_mean_anomaly": 128.4674,
        "meta_ephemeris_type": 0,
        "meta_classification_type": "U",
        "meta_norad_cat_id": 34738,
        "meta_element_set_no": 999,
        "meta_rev_at_epoch": 87798,
        "meta_bstar": 0.00060038615,
        "meta_mean_motion_dot": 2.154e-05,
        "meta_mean_motion_ddot": 0,
        "tle_line1": "1 34738U 93036ZG  25342.56234329  .00002154  00000+0  60039-3 0  9998",
        "tle_line2": "2 34738  74.0141 151.0734 0047274 298.1115 128.4674 14.46288407877981"
      },
      "geometry": {
        "type": "Point",
        "coordinates": [
          152.2609417864904,
          6.294613026014792
        ]
      }
    }
  ]
}